OSCAR 7 (AO-7)          
1 07530U 74089B   26062.00455111 -.00000036  00000+0  66652-4 0  9994
2 07530 101.9969  74.1224 0012029 335.0951  53.2554 12.53696259347211
PHASE 3B (AO-10)        
1 14129U 83058B   26061.53393855 -.00000164  00000+0  00000+0 0  9997
2 14129  25.9320 237.4860 6049007  86.0782 336.7646  2.05874052293290
UOSAT 2 (UO-11)         
1 14781U 84021B   26061.89315885  .00001825  00000+0  19262-3 0  9996
2 14781  97.7936  28.7530 0007798 164.0607 196.0858 14.90475584241296
LUSAT (LO-19)           
1 20442U 90005G   26061.99280089  .00000183  00000+0  82080-4 0  9999
2 20442  98.8939  80.8301 0012077 153.1061 207.0751 14.34084621887170
EYESAT A (AO-27)        
1 22825U 93061C   26062.13405130  .00000137  00000+0  69033-4 0  9996
2 22825  98.6996 129.5389 0009235  56.6560 303.5506 14.30910431691837
ITAMSAT (IO-26)         
1 22826U 93061D   26062.14495192  .00000159  00000+0  76911-4 0  9992
2 22826  98.6944 129.4565 0009540  41.2643 318.9259 14.31334248692144
RADIO ROSTO (RS15)      
1 23439U 94085A   26062.13253890 -.00000013  00000+0  84009-3 0  9992
2 23439  64.8146 114.7389 0152430  23.2657 337.5073 11.27583793283945
JAS-2 (FO-29)           
1 24278U 96046B   26062.14070022 -.00000016  00000+0  19826-4 0  9997
2 24278  98.5392 285.4459 0350107  11.7524 349.1529 13.53268408458824
TECHSAT 1B (GO-32)      
1 25397U 98043D   26061.99663989  .00000101  00000+0  63660-4 0  9990
2 25397  99.0019  52.1056 0001861 130.2655 229.8686 14.24403864436216
ISS (ZARYA)             
1 25544U 98067A   26061.93054995  .00009325  00000+0  18075-3 0  9991
2 25544  51.6319 105.7724 0008215 150.8374 209.3074 15.48408287555284
PCSAT (NO-44)           
1 26931U 01043C   26061.64344242  .00000210  00000+0  10924-3 0  9994
2 26931  67.0510 159.8353 0007022 265.3529  94.6771 14.31907768275193
SAUDISAT 1C (SO-50)     
1 27607U 02058C   26062.14270155  .00001952  00000+0  24771-3 0  9998
2 27607  64.5510  97.0209 0075095 281.8469  77.4222 14.82750791248738
CUTE-1 (CO-55)          
1 27844U 03031E   26061.96016478  .00000415  00000+0  19885-3 0  9991
2 27844  98.6778  71.8426 0010458 130.0831 230.1266 14.24259384176550
CUBESAT XI-IV (CO-57)   
1 27848U 03031J   26061.96597561  .00000349  00000+0  17234-3 0  9994
2 27848  98.6808  71.6462 0010091 146.6500 213.5316 14.23555571176260
MOZHAETS 4 (RS22)       
1 27939U 03042A   26062.21098179  .00001369  00000+0  22028-3 0  9997
2 27939  98.3426 243.5919 0010265 242.6287 233.2213 14.73229872199945
CUBESAT XI-V            
1 28895U 05043F   26061.85173583  .00002468  00000+0  39841-3 0  9996
2 28895  98.2814 215.3472 0014356 178.8167 181.3076 14.72281718 86109
