[{"OBJECT_NAME":"OSCAR 7 (AO-7)","OBJECT_ID":"1974-089B","EPOCH":"2026-03-03T00:06:33.215904","MEAN_MOTION":12.53696259,"ECCENTRICITY":0.0012029,"INCLINATION":101.9969,"RA_OF_ASC_NODE":74.1224,"ARG_OF_PERICENTER":335.0951,"MEAN_ANOMALY":53.2554,"EPHEMERIS_TYPE":0,"CLASSIFICATION_TYPE":"U","NORAD_CAT_ID":7530,"ELEMENT_SET_NO":999,"REV_AT_EPOCH":34721,"BSTAR":6.6652e-5,"MEAN_MOTION_DOT":-3.6e-7,"MEAN_MOTION_DDOT":0},{"OBJECT_NAME":"PHASE 3B (AO-10)","OBJECT_ID":"1983-058B","EPOCH":"2026-03-02T12:48:52.290720","MEAN_MOTION":2.05874052,"ECCENTRICITY":0.6049007,"INCLINATION":25.932,"RA_OF_ASC_NODE":237.486,"ARG_OF_PERICENTER":86.0782,"MEAN_ANOMALY":336.7646,"EPHEMERIS_TYPE":0,"CLASSIFICATION_TYPE":"U","NORAD_CAT_ID":14129,"ELEMENT_SET_NO":999,"REV_AT_EPOCH":29329,"BSTAR":0,"MEAN_MOTION_DOT":-1.64e-6,"MEAN_MOTION_DDOT":0},{"OBJECT_NAME":"UOSAT 2 (UO-11)","OBJECT_ID":"1984-021B","EPOCH":"2026-03-02T21:26:08.924640","MEAN_MOTION":14.90475584,"ECCENTRICITY":0.0007798,"INCLINATION":97.7936,"RA_OF_ASC_NODE":28.753,"ARG_OF_PERICENTER":164.0607,"MEAN_ANOMALY":196.0858,"EPHEMERIS_TYPE":0,"CLASSIFICATION_TYPE":"U","NORAD_CAT_ID":14781,"ELEMENT_SET_NO":999,"REV_AT_EPOCH":24129,"BSTAR":0.00019262,"MEAN_MOTION_DOT":1.825e-5,"MEAN_MOTION_DDOT":0},{"OBJECT_NAME":"LUSAT (LO-19)","OBJECT_ID":"1990-005G","EPOCH":"2026-03-02T23:49:37.996896","MEAN_MOTION":14.34084621,"ECCENTRICITY":0.0012077,"INCLINATION":98.8939,"RA_OF_ASC_NODE":80.8301,"ARG_OF_PERICENTER":153.1061,"MEAN_ANOMALY":207.0751,"EPHEMERIS_TYPE":0,"CLASSIFICATION_TYPE":"U","NORAD_CAT_ID":20442,"ELEMENT_SET_NO":999,"REV_AT_EPOCH":88717,"BSTAR":8.208e-5,"MEAN_MOTION_DOT":1.83e-6,"MEAN_MOTION_DDOT":0},{"OBJECT_NAME":"EYESAT A (AO-27)","OBJECT_ID":"1993-061C","EPOCH":"2026-03-03T03:13:02.032320","MEAN_MOTION":14.30910431,"ECCENTRICITY":0.0009235,"INCLINATION":98.6996,"RA_OF_ASC_NODE":129.5389,"ARG_OF_PERICENTER":56.656,"MEAN_ANOMALY":303.5506,"EPHEMERIS_TYPE":0,"CLASSIFICATION_TYPE":"U","NORAD_CAT_ID":22825,"ELEMENT_SET_NO":999,"REV_AT_EPOCH":69183,"BSTAR":6.9033e-5,"MEAN_MOTION_DOT":1.37e-6,"MEAN_MOTION_DDOT":0},{"OBJECT_NAME":"ITAMSAT (IO-26)","OBJECT_ID":"1993-061D","EPOCH":"2026-03-03T03:28:43.845888","MEAN_MOTION":14.31334248,"ECCENTRICITY":0.000954,"INCLINATION":98.6944,"RA_OF_ASC_NODE":129.4565,"ARG_OF_PERICENTER":41.2643,"MEAN_ANOMALY":318.9259,"EPHEMERIS_TYPE":0,"CLASSIFICATION_TYPE":"U","NORAD_CAT_ID":22826,"ELEMENT_SET_NO":999,"REV_AT_EPOCH":69214,"BSTAR":7.6911e-5,"MEAN_MOTION_DOT":1.59e-6,"MEAN_MOTION_DDOT":0},{"OBJECT_NAME":"RADIO ROSTO (RS15)","OBJECT_ID":"1994-085A","EPOCH":"2026-03-03T03:10:51.360960","MEAN_MOTION":11.27583793,"ECCENTRICITY":0.015243,"INCLINATION":64.8146,"RA_OF_ASC_NODE":114.7389,"ARG_OF_PERICENTER":23.2657,"MEAN_ANOMALY":337.5073,"EPHEMERIS_TYPE":0,"CLASSIFICATION_TYPE":"U","NORAD_CAT_ID":23439,"ELEMENT_SET_NO":999,"REV_AT_EPOCH":28394,"BSTAR":0.00084009,"MEAN_MOTION_DOT":-1.3e-7,"MEAN_MOTION_DDOT":0},{"OBJECT_NAME":"JAS-2 (FO-29)","OBJECT_ID":"1996-046B","EPOCH":"2026-03-03T03:22:36.499008","MEAN_MOTION":13.53268408,"ECCENTRICITY":0.0350107,"INCLINATION":98.5392,"RA_OF_ASC_NODE":285.4459,"ARG_OF_PERICENTER":11.7524,"MEAN_ANOMALY":349.1529,"EPHEMERIS_TYPE":0,"CLASSIFICATION_TYPE":"U","NORAD_CAT_ID":24278,"ELEMENT_SET_NO":999,"REV_AT_EPOCH":45882,"BSTAR":1.9826e-5,"MEAN_MOTION_DOT":-1.6e-7,"MEAN_MOTION_DDOT":0},{"OBJECT_NAME":"TECHSAT 1B (GO-32)","OBJECT_ID":"1998-043D","EPOCH":"2026-03-02T23:55:09.686496","MEAN_MOTION":14.24403864,"ECCENTRICITY":0.0001861,"INCLINATION":99.0019,"RA_OF_ASC_NODE":52.1056,"ARG_OF_PERICENTER":130.2655,"MEAN_ANOMALY":229.8686,"EPHEMERIS_TYPE":0,"CLASSIFICATION_TYPE":"U","NORAD_CAT_ID":25397,"ELEMENT_SET_NO":999,"REV_AT_EPOCH":43621,"BSTAR":6.366e-5,"MEAN_MOTION_DOT":1.01e-6,"MEAN_MOTION_DDOT":0},{"OBJECT_NAME":"ISS (ZARYA)","OBJECT_ID":"1998-067A","EPOCH":"2026-03-02T22:19:59.515680","MEAN_MOTION":15.48408287,"ECCENTRICITY":0.0008215,"INCLINATION":51.6319,"RA_OF_ASC_NODE":105.7724,"ARG_OF_PERICENTER":150.8374,"MEAN_ANOMALY":209.3074,"EPHEMERIS_TYPE":0,"CLASSIFICATION_TYPE":"U","NORAD_CAT_ID":25544,"ELEMENT_SET_NO":999,"REV_AT_EPOCH":55528,"BSTAR":0.00018075,"MEAN_MOTION_DOT":9.325e-5,"MEAN_MOTION_DDOT":0},{"OBJECT_NAME":"PCSAT (NO-44)","OBJECT_ID":"2001-043C","EPOCH":"2026-03-02T15:26:33.425088","MEAN_MOTION":14.31907768,"ECCENTRICITY":0.0007022,"INCLINATION":67.051,"RA_OF_ASC_NODE":159.8353,"ARG_OF_PERICENTER":265.3529,"MEAN_ANOMALY":94.6771,"EPHEMERIS_TYPE":0,"CLASSIFICATION_TYPE":"U","NORAD_CAT_ID":26931,"ELEMENT_SET_NO":999,"REV_AT_EPOCH":27519,"BSTAR":0.00010924,"MEAN_MOTION_DOT":2.1e-6,"MEAN_MOTION_DDOT":0},{"OBJECT_NAME":"SAUDISAT 1C (SO-50)","OBJECT_ID":"2002-058C","EPOCH":"2026-03-03T03:25:29.413920","MEAN_MOTION":14.82750791,"ECCENTRICITY":0.0075095,"INCLINATION":64.551,"RA_OF_ASC_NODE":97.0209,"ARG_OF_PERICENTER":281.8469,"MEAN_ANOMALY":77.4222,"EPHEMERIS_TYPE":0,"CLASSIFICATION_TYPE":"U","NORAD_CAT_ID":27607,"ELEMENT_SET_NO":999,"REV_AT_EPOCH":24873,"BSTAR":0.00024771,"MEAN_MOTION_DOT":1.952e-5,"MEAN_MOTION_DDOT":0},{"OBJECT_NAME":"CUTE-1 (CO-55)","OBJECT_ID":"2003-031E","EPOCH":"2026-03-02T23:02:38.236992","MEAN_MOTION":14.24259384,"ECCENTRICITY":0.0010458,"INCLINATION":98.6778,"RA_OF_ASC_NODE":71.8426,"ARG_OF_PERICENTER":130.0831,"MEAN_ANOMALY":230.1266,"EPHEMERIS_TYPE":0,"CLASSIFICATION_TYPE":"U","NORAD_CAT_ID":27844,"ELEMENT_SET_NO":999,"REV_AT_EPOCH":17655,"BSTAR":0.00019885,"MEAN_MOTION_DOT":4.15e-6,"MEAN_MOTION_DDOT":0},{"OBJECT_NAME":"CUBESAT XI-IV (CO-57)","OBJECT_ID":"2003-031J","EPOCH":"2026-03-02T23:11:00.292704","MEAN_MOTION":14.23555571,"ECCENTRICITY":0.0010091,"INCLINATION":98.6808,"RA_OF_ASC_NODE":71.6462,"ARG_OF_PERICENTER":146.65,"MEAN_ANOMALY":213.5316,"EPHEMERIS_TYPE":0,"CLASSIFICATION_TYPE":"U","NORAD_CAT_ID":27848,"ELEMENT_SET_NO":999,"REV_AT_EPOCH":17626,"BSTAR":0.00017234,"MEAN_MOTION_DOT":3.49e-6,"MEAN_MOTION_DDOT":0},{"OBJECT_NAME":"MOZHAETS 4 (RS22)","OBJECT_ID":"2003-042A","EPOCH":"2026-03-03T05:03:48.826656","MEAN_MOTION":14.73229872,"ECCENTRICITY":0.0010265,"INCLINATION":98.3426,"RA_OF_ASC_NODE":243.5919,"ARG_OF_PERICENTER":242.6287,"MEAN_ANOMALY":233.2213,"EPHEMERIS_TYPE":0,"CLASSIFICATION_TYPE":"U","NORAD_CAT_ID":27939,"ELEMENT_SET_NO":999,"REV_AT_EPOCH":19994,"BSTAR":0.00022028,"MEAN_MOTION_DOT":1.369e-5,"MEAN_MOTION_DDOT":0},{"OBJECT_NAME":"CUBESAT XI-V","OBJECT_ID":"2005-043F","EPOCH":"2026-03-02T20:26:29.975712","MEAN_MOTION":14.72281718,"ECCENTRICITY":0.0014356,"INCLINATION":98.2814,"RA_OF_ASC_NODE":215.3472,"ARG_OF_PERICENTER":178.8167,"MEAN_ANOMALY":181.3076,"EPHEMERIS_TYPE":0,"CLASSIFICATION_TYPE":"U","NORAD_CAT_ID":28895,"ELEMENT_SET_NO":999,"REV_AT_EPOCH":8610,"BSTAR":0.00039841,"MEAN_MOTION_DOT":2.468e-5,"MEAN_MOTION_DDOT":0}]
